[{"OBJECT_NAME":"STARLINK-34723","OBJECT_ID":"2025-152A","EPOCH":"2026-03-09T13:25:56.392608","MEAN_MOTION":15.05672971,"ECCENTRICITY":0.00018714,"INCLINATION":97.6019,"RA_OF_ASC_NODE":285.3137,"ARG_OF_PERICENTER":83.883,"MEAN_ANOMALY":276.261,"EPHEMERIS_TYPE":0,"CLASSIFICATION_TYPE":"U","NORAD_CAT_ID":64842,"ELEMENT_SET_NO":999,"REV_AT_EPOCH":3539,"BSTAR":0.0005690792,"MEAN_MOTION_DOT":8.165e-5,"MEAN_MOTION_DDOT":0},{"OBJECT_NAME":"DELTA 2 R\/B","OBJECT_ID":"1990-074B","EPOCH":"2026-03-09T13:41:18.722976","MEAN_MOTION":14.63139944,"ECCENTRICITY":0.0331131,"INCLINATION":24.7574,"RA_OF_ASC_NODE":207.7051,"ARG_OF_PERICENTER":168.7615,"MEAN_ANOMALY":192.0502,"EPHEMERIS_TYPE":0,"CLASSIFICATION_TYPE":"U","NORAD_CAT_ID":20763,"ELEMENT_SET_NO":999,"REV_AT_EPOCH":86338,"BSTAR":0.00071917,"MEAN_MOTION_DOT":8.858e-5,"MEAN_MOTION_DDOT":0}]
